[{"OBJECT_NAME":"STARLINK-5654","OBJECT_ID":"2023-013AM","EPOCH":"2026-03-09T22:00:01.999584","MEAN_MOTION":15.11289657,"ECCENTRICITY":0.00012041,"INCLINATION":42.9998,"RA_OF_ASC_NODE":285.8425,"ARG_OF_PERICENTER":309.6832,"MEAN_ANOMALY":152.3677,"EPHEMERIS_TYPE":0,"CLASSIFICATION_TYPE":"U","NORAD_CAT_ID":55366,"ELEMENT_SET_NO":999,"REV_AT_EPOCH":567,"BSTAR":0.0043604859,"MEAN_MOTION_DOT":0.00075271,"MEAN_MOTION_DDOT":0},{"OBJECT_NAME":"QAEM 100 R\/B","OBJECT_ID":"2024-165A","EPOCH":"2026-03-09T23:28:11.930304","MEAN_MOTION":15.14187295,"ECCENTRICITY":0.0059581,"INCLINATION":64.0756,"RA_OF_ASC_NODE":359.5576,"ARG_OF_PERICENTER":312.0209,"MEAN_ANOMALY":47.5844,"EPHEMERIS_TYPE":0,"CLASSIFICATION_TYPE":"U","NORAD_CAT_ID":61071,"ELEMENT_SET_NO":999,"REV_AT_EPOCH":8183,"BSTAR":0.0003372463,"MEAN_MOTION_DOT":6.252e-5,"MEAN_MOTION_DDOT":0}]
